COSMOS 2419 (714)       
1 28915U 05050A   17233.34584414 -.00000005  00000-0  00000-0 0  9990
2 28915  65.5284  63.6581 0016173 358.5870  31.2991  2.13106832 90729
COSMOS 2425 (716)       
1 29670U 06062A   17233.33371241 -.00000007  00000-0  10000-3 0  9990
2 29670  65.4280 302.6668 0019588 342.3352  89.9885  2.13105026 82923
COSMOS 2426 (717)       
1 29671U 06062B   17233.38838832 -.00000008  00000-0  10000-3 0  9991
2 29671  65.4460 302.7569 0019113 168.6469 163.4726  2.13103005 82924
COSMOS 2424 (715)       
1 29672U 06062C   17233.11108103 -.00000007  00000-0  10000-3 0  9993
2 29672  65.4304 302.6863 0018497 167.7796 126.7742  2.13102432 82917
COSMOS 2433 (720)       
1 32275U 07052A   17233.24698188 -.00000004  00000-0  10000-3 0  9994
2 32275  65.5423  63.4408 0000402 229.8152 327.9662  2.13104707 76436
COSMOS 2432 (719)       
1 32276U 07052B   17233.30676266 -.00000005  00000-0  10000-3 0  9996
2 32276  65.5550  63.5102 0010590 346.5622 209.8360  2.13104090 76436
COSMOS 2434 (721)       
1 32393U 07065A   17233.19794059 -.00000006  00000-0  00000-0 0  9995
2 32393  65.0440 301.7896 0004513 138.2313 271.2092  2.13103023 75144
COSMOS 2436 (723)       
1 32395U 07065C   17233.39246932 -.00000007  00000-0  10000-3 0  9996
2 32395  65.0546 301.8305 0013021 356.7308 250.9607  2.13104383 75072
COSMOS 2443 (725)       
1 33379U 08046B   17232.60565948  .00000000  00000-0  00000-0 0  9991
2 33379  65.4731  62.8389 0012581 175.3593 149.7377  2.13099487 69274
COSMOS 2456 (730)       
1 36111U 09070A   17233.52402708 -.00000010  00000-0  00000+0 0  9993
2 36111  64.1819 181.3422 0005842 302.8008 168.1251  2.13102913 59813
COSMOS 2457 (733)       
1 36112U 09070B   17233.41778066 -.00000010  00000-0  00000-0 0  9996
2 36112  64.1638 181.2640 0006095 187.7957 329.8859  2.13101758 59814
COSMOS 2458 (734)       
1 36113U 09070C   17233.33824226 -.00000010  00000-0  10000-3 0  9992
2 36113  64.1698 181.2750 0002486 308.8782 195.8412  2.13101932 59815
COSMOS 2459 (731)       
1 36400U 10007A   17233.73983469 -.00000010  00000-0  10000-3 0  9992
2 36400  65.4520  62.5217 0027010 357.2168  80.2118  2.13102295 58178
COSMOS 2461 (735)       
1 36401U 10007B   17233.51709333 -.00000008  00000-0  10000-3 0  9992
2 36401  65.4449  62.5068 0008759  73.2951 103.8732  2.13102304 58161
COSMOS 2460 (732)       
1 36402U 10007C   17233.41997626 -.00000007  00000-0  10000-3 0  9995
2 36402  65.4356  62.4811 0002381  84.5362  59.2616  2.13101746 58164
COSMOS 2465 (737)       
1 37138U 10041B   17233.39212983 -.00000008  00000-0  00000+0 0  9999
2 37138  64.6417 301.7376 0036597 171.2971  71.0814  2.13097533 54235
COSMOS 2464 (736)       
1 37139U 10041C   17233.39067081 -.00000008  00000-0  00000-0 0  9998
2 37139  64.6484 301.7387 0021174  11.6320  53.4008  2.13102747 54235
COSMOS 2471 (701K)      
1 37372U 11009A   17233.31599770 -.00000006  00000-0  00000+0 0  9996
2 37372  65.4322  62.4319 0006742 225.3163 336.2363  2.13107729 50432
COSMOS 2474 (742)       
1 37829U 11055A   17233.45756556 -.00000009  00000-0  00000-0 0  9990
2 37829  64.5060 181.9377 0010346 253.2182  26.2194  2.13101964 45803
COSMOS 2476 (744)       
1 37867U 11064A   17233.22868669 -.00000010  00000-0  00000-0 0  9998
2 37867  64.4862 182.0144 0019584 246.1017 263.7086  2.13101997 45151
COSMOS 2477 (745)       
1 37868U 11064B   17233.36791497 -.00000010  00000-0  00000-0 0  9998
2 37868  64.4945 182.0550 0017460 247.5403 188.1652  2.13101904 45113
COSMOS 2475 (743)       
1 37869U 11064C   17233.37019622 -.00000009  00000-0  00000-0 0  9991
2 37869  64.5021 182.0458 0022367 270.8589 123.0494  2.13102195 45129
COSMOS 2485 (747)       
1 39155U 13019A   17233.26061134 -.00000010  00000-0  00000-0 0  9998
2 39155  64.6559 182.0570 0019972 241.1736 338.1271  2.13102099 33621
COSMOS 2492 (754)       
1 39620U 14012A   17233.41446981 -.00000007  00000-0  10000-3 0  9993
2 39620  65.3252  62.4093 0013855 339.3404  32.2870  2.13103472 26583
COSMOS 2500 (755)       
1 40001U 14032A   17233.32463723 -.00000007  00000-0  00000-0 0  9999
2 40001  65.2637  62.4051 0005318 184.2500 341.3783  2.13102886 24793
COSMOS 2501 (702K)      
1 40315U 14075A   17233.32664186 -.00000010  00000-0  00000+0 0  9993
2 40315  64.3757 303.0593 0016557 207.9689 124.4140  2.13098773 21194
COSMOS 2514 (751)       
1 41330U 16008A   17233.61362898 -.00000010  00000-0  00000-0 0  9997
2 41330  65.0672  62.5212 0008037 203.1243   4.3583  2.13103459 11968
COSMOS 2516 (753)       
1 41554U 16032A   17233.41582001 -.00000010  00000-0  00000-0 0  9990
2 41554  64.5946 302.8381 0013709 218.0997  89.8791  2.13101675  9564
